IRIDIUM 126             
1 42809U 17039G   23349.62290493  .00000248  00000+0  81409-4 0  9998
2 42809  86.3976  15.8470 0002326  99.7075 260.4383 14.34217317338877
IRIDIUM 124             
1 42810U 17039H   23349.37061133  .00000387  00000+0  10905-3 0  9995
2 42810  86.4480 312.7077 0002332  81.3317 278.8148 14.43273711343165
IRIDIUM 128             
1 42811U 17039J   23349.61364492  .00000304  00000+0  10152-3 0  9990
2 42811  86.3974  47.3681 0002240  96.4364 263.7087 14.34219385338898
IRIDIUM 121             
1 42812U 17039K   23349.57216602  .00000271  00000+0  89736-4 0  9993
2 42812  86.4010  15.8858 0002959  84.5752 275.5781 14.34211675338855
IRIDIUM 133             
1 42955U 17061A   23349.71513089  .00000283  00000+0  94063-4 0  9993
2 42955  86.3996  47.4194 0003805  65.0632 295.0959 14.34213248323701
IRIDIUM 100             
1 42956U 17061B   23349.56923766  .00000285  00000+0  94827-4 0  9994
2 42956  86.3972  47.4223 0002299  96.2182 263.9275 14.34216090323681
IRIDIUM 122             
1 42957U 17061C   23349.60729903  .00000282  00000+0  93725-4 0  9990
2 42957  86.3975  47.4041 0002363  96.1502 263.9963 14.34219278323696
IRIDIUM 129             
1 42958U 17061D   23349.56289876  .00000289  00000+0  96011-4 0  9994
2 42958  86.3976  47.4801 0002317  96.6626 263.4834 14.34216377323704
